ONEWEB-0202             
1 48224U 21031Q   23312.73182294 -.00004998  00000+0 -13548-1 0  9997
2 48224  87.8940 119.1154 0000848 114.4797 245.6421 13.14376725123372
ONEWEB-0204             
1 48225U 21031R   23312.53768604  .00000229  00000+0  58427-3 0  9999
2 48225  87.8938 119.1659 0002039  87.7685 272.3678 13.14336921123232
ONEWEB-0205             
1 48226U 21031S   23312.51329728 -.00001581  00000+0 -42972-2 0  9999
2 48226  87.8939 119.1403 0001678  97.1364 262.9956 13.14557778123248
ONEWEB-0206             
1 48227U 21031T   23312.48619277  .00000028  00000+0  41737-4 0  9990
2 48227  87.8945 119.1339 0001677 100.2431 259.8888 13.14455476123199
ONEWEB-0182             
1 48228U 21031U   23312.48092094 -.00000517  00000+0 -14368-2 0  9996
2 48228  87.8941 119.1575 0001665  95.8891 264.2429 13.14147939123401
ONEWEB-0186             
1 48229U 21031V   23312.49251092 -.00000377  00000+0 -10519-2 0  9991
2 48229  87.8937 119.1186 0001456  94.9869 265.1427 13.14453125123357
ONEWEB-0181             
1 48230U 21031W   23312.46999745 -.00001193  00000+0 -32635-2 0  9994
2 48230  87.8936 119.1955 0001637  83.4945 276.6371 13.14267617123209
ONEWEB-0188             
1 48231U 21031X   23312.50867183 -.00000329  00000+0 -91970-3 0  9998
2 48231  87.8938 119.1864 0001532  95.2017 264.9288 13.14650107123113
